OBJECT_NAME,OBJECT_ID,EPOCH,MEAN_MOTION,ECCENTRICITY,INCLINATION,RA_OF_ASC_NODE,ARG_OF_PERICENTER,MEAN_ANOMALY,EPHEMERIS_TYPE,CLASSIFICATION_TYPE,NORAD_CAT_ID,ELEMENT_SET_NO,REV_AT_EPOCH,BSTAR,MEAN_MOTION_DOT,MEAN_MOTION_DDOT
KUZGTU 1 (RS47S),2023-091AV,2026-07-18T07:00:07.649280,15.30510087,.00097577,97.5042,264.1006,354.9710,5.1431,0,U,57217,999,16913,.20757874E-3,.6052E-4,0
SONATE-2,2024-043Q,2026-07-17T22:19:14.806272,15.60980545,.00067591,97.5566,351.2719,98.0994,262.1029,0,U,59112,999,13268,.30609144E-3,.25616E-3,0
MESAT1,2024-125G,2026-07-18T02:49:41.534112,15.66700059,.00108047,97.2239,57.3790,103.4551,256.7915,0,U,60209,999,11440,.40131765E-3,.42253E-3,0
OOV-CUBE (TUBSAT-30),2024-128F,2026-07-18T04:40:10.084224,15.02880615,.00407363,61.9941,117.4425,140.6635,219.7428,0,U,60240,999,11077,.82240358E-4,.911E-5,0
COLIBRI-S (RS67S),2024-199M,2026-07-18T06:38:20.895936,15.48932375,.00093315,97.2939,73.4346,151.7028,208.4732,0,U,61746,999,14222,.23572851E-3,.12656E-3,0
HORS 3 (RS81S),2024-199U,2026-07-18T06:41:11.640480,15.57056940,.00074785,97.2923,75.7800,146.5447,213.6282,0,U,61753,999,14239,.30763592E-3,.22198E-3,0
HORS 4 (RS82S),2024-199V,2026-07-18T06:22:09.919776,15.62601565,.00072848,97.2863,77.1870,139.4822,220.6980,0,U,61754,999,14249,.39779796E-3,.35529E-3,0
SIT-2086,2024-199AF,2026-07-18T03:58:58.283040,15.55163468,.00084897,97.2881,76.0333,135.6671,224.5265,0,U,61764,999,13924,.33634102E-3,.22648E-3,0
HYPERVIEW 1G (RS66S),2024-199AP,2026-07-18T01:56:11.361120,15.86326845,.00082531,97.2776,80.5823,141.7677,218.4181,0,U,61772,999,13955,.71875916E-3,.182305E-2,0
ALTAIR (RS65S),2024-199AW,2026-07-18T06:58:43.885344,15.37546368,.00123721,97.2985,68.4416,185.2396,174.8721,0,U,61779,999,14189,.1650165E-3,.601E-4,0
ASRTU-1 (AO-123),2024-199AY,2026-07-18T05:48:35.731872,15.36079606,.00133426,97.2956,67.6351,189.3603,170.7394,0,U,61781,999,13869,.11772459E-3,.4067E-4,0
SAMSAT-IONOSPHERE (RS75S),2024-199BB,2026-07-18T06:05:13.149888,15.60322987,.00095226,97.2886,75.9267,150.6041,209.5754,0,U,61784,999,14240,.38632421E-3,.31617E-3,0
RTU MIREA 1 (RS51S),2024-199BC,2026-07-18T06:22:49.869408,15.64539871,.00095969,97.2871,76.9482,145.7263,214.4618,0,U,61785,999,13932,.44284528E-3,.42765E-3,0
TEVEL2-4,2025-052D,2026-07-18T03:27:03.811104,15.35630183,.00033202,97.3856,95.6034,45.8428,314.3088,0,U,63213,999,7486,.2934883E-3,.1009E-3,0
TEVEL2-5,2025-052E,2026-07-16T16:03:21.768480,15.35411833,.00034631,97.3862,94.0641,50.3372,309.8177,0,U,63214,999,7463,.32362702E-3,.11058E-3,0
TEVEL2-6,2025-052F,2026-07-18T04:20:35.749248,15.35407158,.00033837,97.3859,95.5644,49.2779,310.8758,0,U,63215,999,7486,.30600031E-3,.10449E-3,0
TEVEL2-1,2025-052H,2026-07-17T12:05:46.515840,15.34820987,.0004106,97.3833,94.4731,55.4900,304.6730,0,U,63217,999,7474,.273E-3,.914E-4,0
TEVEL2-3,2025-052J,2026-07-18T03:35:09.029184,15.34897308,.00037595,97.3838,95.1455,56.7252,303.4351,0,U,63218,999,7484,.29206756E-3,.9808E-4,0
TEVEL2-2,2025-052K,2026-07-17T10:32:03.164064,15.34831434,.0004139,97.3834,94.4108,55.7304,304.4330,0,U,63219,999,7473,.28479E-3,.9542E-4,0
OTP-2,2025-052AB,2026-07-18T03:34:05.350656,15.24358716,.00080222,97.3825,91.1187,62.9142,297.2913,0,U,63235,999,7458,.13929551E-3,.3341E-4,0
TEVEL2-9,2025-052AD,2026-07-18T04:11:00.617280,15.32788081,.0007415,97.3893,94.4533,48.5401,311.6477,0,U,63237,999,7477,.27995897E-3,.8795E-4,0
TEVEL2-7,2025-052AE,2026-07-18T03:44:48.161472,15.32470265,.00075267,97.3895,94.3374,48.4431,311.7455,0,U,63238,999,7476,.27257943E-3,.8475E-4,0
TEVEL2-8,2025-052AF,2026-07-17T23:15:01.967328,15.32452514,.00076017,97.3899,94.1271,50.4202,309.7710,0,U,63239,999,7473,.28673003E-3,.8915E-4,0
INNOSAT 16 (RS92S7),2025-155C,2026-07-18T06:54:58.056480,15.25757526,.00124226,97.4588,166.3274,79.2561,281.0075,0,U,64878,999,8541,.11702668E-3,.2919E-4,0
GEOSCAN 6 (RS92S6),2025-155D,2026-07-18T05:43:23.191968,15.30688674,.00098546,97.4578,167.9265,73.5515,286.6808,0,U,64879,999,8551,.17792364E-3,.5206E-4,0
GEOSCAN 1 (RS92S1),2025-155E,2026-07-18T05:28:38.695296,15.31339589,.00097764,97.4575,168.0924,73.8250,286.4067,0,U,64880,999,8552,.1879287E-3,.5616E-4,0
239ALFEROV (RS61S),2025-155F,2026-07-18T05:12:11.352384,15.33721715,.00095073,97.4575,168.7510,73.8953,286.3335,0,U,64881,999,8556,.24504148E-3,.7921E-4,0
GEOSCAN 2 (RS92S2),2025-155Q,2026-07-18T06:45:58.117824,15.31598134,.00088987,97.4574,168.3110,63.9978,296.2179,0,U,64890,999,8554,.19237749E-3,.5797E-4,0
GEOSCAN 5 (RS92S5),2025-155R,2026-07-18T04:47:18.221280,15.34025241,.0008562,97.4567,168.8827,78.7006,281.5198,0,U,64891,999,8557,.24268903E-3,.7918E-4,0
GEOSCAN 4 (RS92S4),2025-155S,2026-07-18T05:53:46.111776,15.34195609,.00084453,97.4571,168.9871,78.9183,281.3009,0,U,64892,999,8558,.24311112E-3,.7974E-4,0
