KUZGTU 1 (RS47S)        
1 57217U 23091AV  26199.29175520  .00006052  00000+0  20758-3 0  9992
2 57217  97.5042 264.1006 0009757 354.9710   5.1431 15.30510087169131
SONATE-2                
1 59112U 24043Q   26198.93003248  .00025616  00000+0  30609-3 0  9996
2 59112  97.5566 351.2719 0006759  98.0994 262.1029 15.60980545132687
MESAT1                  
1 60209U 24125G   26199.11784183  .00042253  00000+0  40132-3 0  9999
2 60209  97.2239  57.3790 0010804 103.4551 256.7915 15.66700059114408
OOV-CUBE (TUBSAT-30)    
1 60240U 24128F   26199.19456116  .00000911  00000+0  82240-4 0  9999
2 60240  61.9941 117.4425 0040736 140.6635 219.7428 15.02880615110778
COLIBRI-S (RS67S)       
1 61746U 24199M   26199.27663074  .00012656  00000+0  23573-3 0  9993
2 61746  97.2939  73.4346 0009331 151.7028 208.4732 15.48932375142226
HORS 3 (RS81S)          
1 61753U 24199U   26199.27860695  .00022198  00000+0  30764-3 0  9991
2 61753  97.2923  75.7800 0007478 146.5447 213.6282 15.57056940142395
HORS 4 (RS82S)          
1 61754U 24199V   26199.26539259  .00035529  00000+0  39780-3 0  9999
2 61754  97.2863  77.1870 0007284 139.4822 220.6980 15.62601565142494
SIT-2086                
1 61764U 24199AF  26199.16595235  .00022648  00000+0  33634-3 0  9995
2 61764  97.2881  76.0333 0008489 135.6671 224.5265 15.55163468139240
HYPERVIEW 1G (RS66S)    
1 61772U 24199AP  26199.08068705  .00182305  00000+0  71876-3 0  9999
2 61772  97.2776  80.5823 0008253 141.7677 218.4181 15.86326845139556
ALTAIR (RS65S)          
1 61779U 24199AW  26199.29078571  .00006010  00000+0  16502-3 0  9994
2 61779  97.2985  68.4416 0012372 185.2396 174.8721 15.37546368141891
ASRTU-1 (AO-123)        
1 61781U 24199AY  26199.24208023  .00004067  00000+0  11772-3 0  9993
2 61781  97.2956  67.6351 0013342 189.3603 170.7394 15.36079606138695
SAMSAT-IONOSPHERE (RS7*)
1 61784U 24199BB  26199.25362442  .00031617  00000+0  38632-3 0  9998
2 61784  97.2886  75.9267 0009522 150.6041 209.5754 15.60322987142405
RTU MIREA 1 (RS51S)     
1 61785U 24199BC  26199.26585497  .00042765  00000+0  44285-3 0  9994
2 61785  97.2871  76.9482 0009596 145.7263 214.4618 15.64539871139329
TEVEL2-4                
1 63213U 25052D   26199.14379411  .00010090  00000+0  29349-3 0  9995
2 63213  97.3856  95.6034 0003320  45.8428 314.3088 15.35630183 74868
TEVEL2-5                
1 63214U 25052E   26197.66900195  .00011058  00000+0  32363-3 0  9995
2 63214  97.3862  94.0641 0003463  50.3372 309.8177 15.35411833 74632
TEVEL2-6                
1 63215U 25052F   26199.18096932  .00010449  00000+0  30600-3 0  9995
2 63215  97.3859  95.5644 0003383  49.2779 310.8758 15.35407158 74864
TEVEL2-1                
1 63217U 25052H   26198.50401060  .00009140  00000+0  27300-3 0  9993
2 63217  97.3833  94.4731 0004106  55.4900 304.6730 15.34820987 74748
TEVEL2-3                
1 63218U 25052J   26199.14941006  .00009808  00000+0  29207-3 0  9993
2 63218  97.3838  95.1455 0003759  56.7252 303.4351 15.34897308 74840
TEVEL2-2                
1 63219U 25052K   26198.43892551  .00009542  00000+0  28479-3 0  9990
2 63219  97.3834  94.4108 0004139  55.7304 304.4330 15.34831434 74738
OTP-2                   
1 63235U 25052AB  26199.14867304  .00003341  00000+0  13930-3 0  9992
2 63235  97.3825  91.1187 0008022  62.9142 297.2913 15.24358716 74587
TEVEL2-9                
1 63237U 25052AD  26199.17431270  .00008795  00000+0  27996-3 0  9991
2 63237  97.3893  94.4533 0007415  48.5401 311.6477 15.32788081 74776
TEVEL2-7                
1 63238U 25052AE  26199.15611298  .00008475  00000+0  27258-3 0  9996
2 63238  97.3895  94.3374 0007526  48.4431 311.7455 15.32470265 74764
TEVEL2-8                
1 63239U 25052AF  26198.96877277  .00008915  00000+0  28673-3 0  9997
2 63239  97.3899  94.1271 0007601  50.4202 309.7710 15.32452514 74731
INNOSAT 16 (RS92S7)     
1 64878U 25155C   26199.28817195  .00002919  00000+0  11703-3 0  9994
2 64878  97.4588 166.3274 0012422  79.2561 281.0075 15.25757526 85412
GEOSCAN 6 (RS92S6)      
1 64879U 25155D   26199.23846287  .00005206  00000+0  17792-3 0  9990
2 64879  97.4578 167.9265 0009854  73.5515 286.6808 15.30688674 85519
GEOSCAN 1 (RS92S1)      
1 64880U 25155E   26199.22822564  .00005616  00000+0  18793-3 0  9990
2 64880  97.4575 168.0924 0009776  73.8250 286.4067 15.31339589 85529
239ALFEROV (RS61S)      
1 64881U 25155F   26199.21679806  .00007921  00000+0  24504-3 0  9997
2 64881  97.4575 168.7510 0009507  73.8953 286.3335 15.33721715 85569
GEOSCAN 2 (RS92S2)      
1 64890U 25155Q   26199.28192266  .00005797  00000+0  19238-3 0  9991
2 64890  97.4574 168.3110 0008898  63.9978 296.2179 15.31598134 85548
GEOSCAN 5 (RS92S5)      
1 64891U 25155R   26199.19951645  .00007918  00000+0  24269-3 0  9993
2 64891  97.4567 168.8827 0008562  78.7006 281.5198 15.34025241 85573
GEOSCAN 4 (RS92S4)      
1 64892U 25155S   26199.24567259  .00007974  00000+0  24311-3 0  9994
2 64892  97.4571 168.9871 0008445  78.9183 281.3009 15.34195609 85583
